[{"OBJECT_NAME":"DONGPO 08","OBJECT_ID":"2022-167E","EPOCH":"2026-03-09T22:57:52.742880","MEAN_MOTION":15.31542505,"ECCENTRICITY":0.00092155,"INCLINATION":97.6764,"RA_OF_ASC_NODE":233.3854,"ARG_OF_PERICENTER":153.9158,"MEAN_ANOMALY":206.2548,"EPHEMERIS_TYPE":0,"CLASSIFICATION_TYPE":"U","NORAD_CAT_ID":54686,"ELEMENT_SET_NO":999,"REV_AT_EPOCH":18012,"BSTAR":0.0004734784,"MEAN_MOTION_DOT":0.0001437,"MEAN_MOTION_DDOT":0},{"OBJECT_NAME":"STARLINK-32380","OBJECT_ID":"2024-164V","EPOCH":"2026-03-09T08:12:41.462784","MEAN_MOTION":15.30194515,"ECCENTRICITY":0.00012488,"INCLINATION":53.1609,"RA_OF_ASC_NODE":92.7793,"ARG_OF_PERICENTER":75.6535,"MEAN_ANOMALY":284.4605,"EPHEMERIS_TYPE":0,"CLASSIFICATION_TYPE":"U","NORAD_CAT_ID":61069,"ELEMENT_SET_NO":999,"REV_AT_EPOCH":8342,"BSTAR":3.6030158e-5,"MEAN_MOTION_DOT":7.08e-6,"MEAN_MOTION_DDOT":0}]
